SOYUZ-MS 28             
1 66664U 25275A   25344.54178147  .00015517  00000+0  28443-3 0  9996
2 66664  51.6308 153.3620 0003360 230.7092 129.3599 15.49478601  2104
1998-067XS              
1 66906U 98067XS  25344.79569867  .00038284  00000+0  66575-3 0  9998
2 66906  51.6302 152.0585 0003796 193.8715 166.2170 15.50409035  1311
1998-067XT              
1 66907U 98067XT  25343.50529068  .00076342  00000+0  12921-2 0  9998
2 66907  51.6307 158.4423 0004803 208.5081 151.5646 15.50864429  1113
1998-067XU              
1 66908U 98067XU  25344.66485337  .00087912  00000+0  14714-2 0  9994
2 66908  51.6304 152.6848 0004813 213.5482 146.5203 15.51115637  1293
SILVERSAT               
1 66909U 98067XV  25344.72904365  .00091869  00000+0  15306-2 0  9993
2 66909  51.6307 152.3636 0004668 216.2554 143.8119 15.51224506  1301
1998-067XW              
1 66910U 98067XW  25344.47007597  .00083191  00000+0  13818-2 0  9993
2 66910  51.6299 153.6351 0005541 197.1967 162.8836 15.51350337  1261
1998-067XX              
1 66911U 98067XX  25344.79171918  .00097210  00000+0  15968-2 0  9993
2 66911  51.6296 152.0318 0005299 199.6569 160.4217 15.51590937  1304
1998-067XY              
1 66912U 98067XY  25344.73012554  .00067697  00000+0  11490-2 0  9990
2 66912  51.6309 152.3712 0004791 213.0974 146.9716 15.50838333  1293
